[
    {
        "Altitude(m)": 553593.2455476035,
        "Argument of Periapsis(deg)": 0.006622991110713501,
        "Eccentricity": 0.0,
        "Inclination(deg)": 53.0,
        "Latitude(deg)": 16.5060307871032,
        "Longitude(deg)": 126.3961108701683,
        "Mean Anomaly(deg)": 159.18249286757757,
        "RAAN(deg)": 59.99014336852801,
        "Satellite Name": "Starlink Shell 1 273",
        "Satellite Number": 273,
        "Semi-Major Axis(m)": 6931778.249405717,
        "Time(s)": 190
    },
    {
        "Altitude(m)": 553571.0709590275,
        "Argument of Periapsis(deg)": 0.0069715695902247375,
        "Eccentricity": 0.0,
        "Inclination(deg)": 53.0,
        "Latitude(deg)": 16.01447348922171,
        "Longitude(deg)": 126.76344551832275,
        "Mean Anomaly(deg)": 159.80932407113426,
        "RAAN(deg)": 59.98962459845053,
        "Satellite Name": "Starlink Shell 1 273",
        "Satellite Number": 273,
        "Semi-Major Axis(m)": 6931778.249405717,
        "Time(s)": 200
    },
    {
        "Altitude(m)": 553551.2762414764,
        "Argument of Periapsis(deg)": 0.007320148069735974,
        "Eccentricity": 0.0,
        "Inclination(deg)": 53.0,
        "Latitude(deg)": 15.522123506877042,
        "Longitude(deg)": 127.1287826922748,
        "Mean Anomaly(deg)": 160.436155274691,
        "RAAN(deg)": 59.98910582837307,
        "Satellite Name": "Starlink Shell 1 273",
        "Satellite Number": 273,
        "Semi-Major Axis(m)": 6931778.249405717,
        "Time(s)": 210
    },
    {
        "Altitude(m)": 553533.8932633924,
        "Argument of Periapsis(deg)": 0.007668726549247212,
        "Eccentricity": 0.0,
        "Inclination(deg)": 53.0,
        "Latitude(deg)": 15.02901013672313,
        "Longitude(deg)": 127.49219290094415,
        "Mean Anomaly(deg)": 161.06298647824772,
        "RAAN(deg)": 59.98858705829559,
        "Satellite Name": "Starlink Shell 1 273",
        "Satellite Number": 273,
        "Semi-Major Axis(m)": 6931778.249405717,
        "Time(s)": 220
    },
    {
        "Altitude(m)": 553518.9528146362,
        "Argument of Periapsis(deg)": 0.00801730502875845,
        "Eccentricity": 0.0,
        "Inclination(deg)": 53.0,
        "Latitude(deg)": 14.535162250876324,
        "Longitude(deg)": 127.85374583701432,
        "Mean Anomaly(deg)": 161.68981768180444,
        "RAAN(deg)": 59.988068288218116,
        "Satellite Name": "Starlink Shell 1 273",
        "Satellite Number": 273,
        "Semi-Major Axis(m)": 6931778.249405717,
        "Time(s)": 230
    },
    {
        "Altitude(m)": 553506.4845885369,
        "Argument of Periapsis(deg)": 0.008365883508269684,
        "Eccentricity": 0.0,
        "Inclination(deg)": 53.0,
        "Latitude(deg)": 14.040608314098574,
        "Longitude(deg)": 128.21351090816302,
        "Mean Anomaly(deg)": 162.31664888536113,
        "RAAN(deg)": 59.98754951814065,
        "Satellite Name": "Starlink Shell 1 273",
        "Satellite Number": 273,
        "Semi-Major Axis(m)": 6931778.249405717,
        "Time(s)": 240
    },
    {
        "Altitude(m)": 553496.5171644725,
        "Argument of Periapsis(deg)": 0.008714461987780921,
        "Eccentricity": 0.0,
        "Inclination(deg)": 53.0,
        "Latitude(deg)": 13.545376400620608,
        "Longitude(deg)": 128.5715562554568,
        "Mean Anomaly(deg)": 162.94348008891788,
        "RAAN(deg)": 59.98703074806318,
        "Satellite Name": "Starlink Shell 1 273",
        "Satellite Number": 273,
        "Semi-Major Axis(m)": 6931778.249405717,
        "Time(s)": 250
    },
    {
        "Altitude(m)": 553489.0779909907,
        "Argument of Periapsis(deg)": 0.009063040467292158,
        "Eccentricity": 0.0,
        "Inclination(deg)": 53.0,
        "Latitude(deg)": 13.049494210616027,
        "Longitude(deg)": 128.92794928463437,
        "Mean Anomaly(deg)": 163.57031129247457,
        "RAAN(deg)": 59.9865119779857,
        "Satellite Name": "Starlink Shell 1 273",
        "Satellite Number": 273,
        "Semi-Major Axis(m)": 6931778.249405717,
        "Time(s)": 260
    },
    {
        "Altitude(m)": 553484.1933694665,
        "Argument of Periapsis(deg)": 0.009411618946803396,
        "Eccentricity": 0.0,
        "Inclination(deg)": 53.0,
        "Latitude(deg)": 12.552989086339538,
        "Longitude(deg)": 129.28275719738411,
        "Mean Anomaly(deg)": 164.1971424960313,
        "RAAN(deg)": 59.98599320790824,
        "Satellite Name": "Starlink Shell 1 273",
        "Satellite Number": 273,
        "Semi-Major Axis(m)": 6931778.249405717,
        "Time(s)": 270
    },
    {
        "Altitude(m)": 553481.8884383509,
        "Argument of Periapsis(deg)": 0.009760197426314633,
        "Eccentricity": 0.0,
        "Inclination(deg)": 53.0,
        "Latitude(deg)": 12.055888027943231,
        "Longitude(deg)": 129.63604600972582,
        "Mean Anomaly(deg)": 164.82397369958804,
        "RAAN(deg)": 59.98547443783076,
        "Satellite Name": "Starlink Shell 1 273",
        "Satellite Number": 273,
        "Semi-Major Axis(m)": 6931778.249405717,
        "Time(s)": 280
    },
    {
        "Altitude(m)": 553482.1871579397,
        "Argument of Periapsis(deg)": 0.01010877590582587,
        "Eccentricity": 0.0,
        "Inclination(deg)": 53.0,
        "Latitude(deg)": 11.558217708981527,
        "Longitude(deg)": 129.98788108322705,
        "Mean Anomaly(deg)": 165.45080490314473,
        "RAAN(deg)": 59.984955667753276,
        "Satellite Name": "Starlink Shell 1 273",
        "Satellite Number": 273,
        "Semi-Major Axis(m)": 6931778.249405717,
        "Time(s)": 290
    },
    {
        "Altitude(m)": 553485.1122957341,
        "Argument of Periapsis(deg)": 0.010457354385337106,
        "Eccentricity": 0.0,
        "Inclination(deg)": 53.0,
        "Latitude(deg)": 11.060004491617597,
        "Longitude(deg)": 130.3383276561691,
        "Mean Anomaly(deg)": 166.07763610670148,
        "RAAN(deg)": 59.98443689767582,
        "Satellite Name": "Starlink Shell 1 273",
        "Satellite Number": 273,
        "Semi-Major Axis(m)": 6931778.249405717,
        "Time(s)": 300
    },
    {
        "Altitude(m)": 553490.6854124188,
        "Argument of Periapsis(deg)": 0.010805932864848343,
        "Eccentricity": 0.0,
        "Inclination(deg)": 53.0,
        "Latitude(deg)": 10.561274441546264,
        "Longitude(deg)": 130.6874498617763,
        "Mean Anomaly(deg)": 166.70446731025817,
        "RAAN(deg)": 59.983918127598336,
        "Satellite Name": "Starlink Shell 1 273",
        "Satellite Number": 273,
        "Semi-Major Axis(m)": 6931778.249405717,
        "Time(s)": 310
    },
    {
        "Altitude(m)": 553498.9268483703,
        "Argument of Periapsis(deg)": 0.01115451134435958,
        "Eccentricity": 0.0,
        "Inclination(deg)": 53.0,
        "Latitude(deg)": 10.062053342642491,
        "Longitude(deg)": 131.03531125924835,
        "Mean Anomaly(deg)": 167.33129851381486,
        "RAAN(deg)": 59.98339935752086,
        "Satellite Name": "Starlink Shell 1 273",
        "Satellite Number": 273,
        "Semi-Major Axis(m)": 6931778.249405717,
        "Time(s)": 320
    },
    {
        "Altitude(m)": 553509.8557108144,
        "Argument of Periapsis(deg)": 0.011503089823870818,
        "Eccentricity": 0.0,
        "Inclination(deg)": 53.0,
        "Latitude(deg)": 9.562366711349396,
        "Longitude(deg)": 131.38197536471313,
        "Mean Anomaly(deg)": 167.9581297173716,
        "RAAN(deg)": 59.98288058744339,
        "Satellite Name": "Starlink Shell 1 273",
        "Satellite Number": 273,
        "Semi-Major Axis(m)": 6931778.249405717,
        "Time(s)": 330
    },
    {
        "Altitude(m)": 553523.4898615675,
        "Argument of Periapsis(deg)": 0.011851668303382053,
        "Eccentricity": 0.0,
        "Inclination(deg)": 53.0,
        "Latitude(deg)": 9.062239810819934,
        "Longitude(deg)": 131.72750466922145,
        "Mean Anomaly(deg)": 168.5849609209283,
        "RAAN(deg)": 59.98236181736592,
        "Satellite Name": "Starlink Shell 1 273",
        "Satellite Number": 273,
        "Semi-Major Axis(m)": 6931778.249405717,
        "Time(s)": 340
    },
    {
        "Altitude(m)": 553539.8459053803,
        "Argument of Periapsis(deg)": 0.012200246782893292,
        "Eccentricity": 0.0,
        "Inclination(deg)": 53.0,
        "Latitude(deg)": 8.561697664821397,
        "Longitude(deg)": 132.07196116952645,
        "Mean Anomaly(deg)": 169.21179212448502,
        "RAAN(deg)": 59.98184304728844,
        "Satellite Name": "Starlink Shell 1 273",
        "Satellite Number": 273,
        "Semi-Major Axis(m)": 6931778.249405717,
        "Time(s)": 350
    },
    {
        "Altitude(m)": 553558.939178934,
        "Argument of Periapsis(deg)": 0.012548825262404526,
        "Eccentricity": 0.0,
        "Inclination(deg)": 53.0,
        "Latitude(deg)": 8.060765071416325,
        "Longitude(deg)": 132.41540689877127,
        "Mean Anomaly(deg)": 169.8386233280418,
        "RAAN(deg)": 59.98132427721097,
        "Satellite Name": "Starlink Shell 1 273",
        "Satellite Number": 273,
        "Semi-Major Axis(m)": 6931778.249405717,
        "Time(s)": 360
    },
    {
        "Altitude(m)": 553580.7837404261,
        "Argument of Periapsis(deg)": 0.012897403741915765,
        "Eccentricity": 0.0,
        "Inclination(deg)": 53.0,
        "Latitude(deg)": 7.559466616434548,
        "Longitude(deg)": 132.75790294420807,
        "Mean Anomaly(deg)": 170.46545453159843,
        "RAAN(deg)": 59.9808055071335,
        "Satellite Name": "Starlink Shell 1 273",
        "Satellite Number": 273,
        "Semi-Major Axis(m)": 6931778.249405717,
        "Time(s)": 370
    }
]